SWARM A                 
1 39452U 13067B   26164.79993145  .00010655  00000+0  18361-3 0  9994
2 39452  87.3335  57.5006 0003007  94.8693 265.2911 15.50893637705720
SWARM C                 
1 39453U 13067C   26164.79981524  .00010710  00000+0  18456-3 0  9990
2 39453  87.3334  56.0817 0003000  95.1879 264.9724 15.50891531705681
BRITE-CA1 (TORONTO)     
1 40020U 14033L   26164.84438997  .00000658  00000+0  10668-3 0  9990
2 40020  97.9734 293.8340 0077283 287.9133  71.3659 14.72672577641725
OCO 2                   
1 40059U 14035A   26164.79067015  .00000358  00000+0  89549-4 0  9999
2 40059  98.2018 106.1354 0001495  86.2119 273.9250 14.57108757635551
BRITE-PL2 (HEWELIUSZ)   
1 40119U 14049B   26164.82488382  .00001471  00000+0  14121-3 0  9999
2 40119  97.9094 276.7990 0015179 118.4588 241.8163 14.94583699640949
MMS 1                   
1 40482U 15011A   26164.83335647 -.00000387  00000+0  00000+0 0  9991
2 40482  72.1293 348.8296 8312302 167.4083 316.2156  0.28542169  1396
MMS 2                   
1 40483U 15011B   26164.83335647 -.00000387  00000+0  00000+0 0  9992
2 40483  72.1295 348.8318 8313090 167.4140 316.2041  0.28542177  1395
MMS 3                   
1 40484U 15011C   26164.83335647 -.00000386  00000+0  00000+0 0  9992
2 40484  72.1315 348.8365 8311561 167.4086 316.1752  0.28558553  1394
MMS 4                   
1 40485U 15011D   26164.83335647 -.00000387  00000+0  00000+0 0  9994
2 40485  72.1287 348.8321 8311880 167.4163 316.1884  0.28542014  1396
ASTROSAT                
1 40930U 15052A   26164.86234205  .00001508  00000+0  10188-3 0  9992
2 40930   5.9957 179.2889 0008055 343.6494  16.3374 14.82502402579337
DAMPE                   
1 41173U 15078A   26164.89999986  .00000910  00000+0  33128-4 0  9993
2 41173  97.4556 170.3504 0013806  87.5018 272.7803 15.30776422584048
PISAT                   
1 41784U 16059B   26164.87445595  .00000817  00000+0  14676-3 0  9993
2 41784  97.8179 165.4696 0028119 213.6485 146.2936 14.68978534519252
HXMT (HUIYAN)           
1 42758U 17034A   26164.58229022  .00003909  00000+0  19572-3 0  9997
2 42758  43.0128 203.1146 0030272 123.5004 236.8744 15.18458559497119
FLYING LAPTOP           
1 42831U 17042G   26164.85261773  .00005797  00000+0  45518-3 0  9993
2 42831  97.4666 320.5145 0019471 132.5077 227.7796 15.01129924485950
ZHANGHENG 1-01 (CSES-1) 
1 43194U 18015C   26164.84914163  .00006975  00000+0  31872-3 0  9991
2 43194  97.6860 330.4406 0017012 279.0094  80.9216 15.20773536464134
SALSAT                  
1 46495U 20068K   26164.80958010  .00008083  00000+0  28306-3 0  9994
2 46495  97.8845 167.6684 0008290 322.4274  37.6385 15.29755280314848
IXPE                    
1 49954U 21121A   26164.83335647  .00011892  00000+0  65030-3 0  9993
2 49954   0.2314 342.6904 0007108  30.4985 359.2511 15.10221505  5818
SMILE                   
1 69123U 26109A   26144.65318427 -.00001976  00000+0 -42379-3 0  9994
2 69123  70.0007 229.2745 0009123 259.5159 100.4951 14.57062785   802
