OBJECT_NAME,OBJECT_ID,EPOCH,MEAN_MOTION,ECCENTRICITY,INCLINATION,RA_OF_ASC_NODE,ARG_OF_PERICENTER,MEAN_ANOMALY,EPHEMERIS_TYPE,CLASSIFICATION_TYPE,NORAD_CAT_ID,ELEMENT_SET_NO,REV_AT_EPOCH,BSTAR,MEAN_MOTION_DOT,MEAN_MOTION_DDOT
SWARM A,2013-067B,2026-06-13T19:11:54.077280,15.50893637,.0003007,87.3335,57.5006,94.8693,265.2911,0,U,39452,999,70572,.18361E-3,.10655E-3,0
SWARM C,2013-067C,2026-06-13T19:11:44.036736,15.50891531,.0003,87.3334,56.0817,95.1879,264.9724,0,U,39453,999,70568,.18456E-3,.1071E-3,0
BRITE-CA1 (TORONTO),2014-033L,2026-06-13T20:15:55.293408,14.72672577,.0077283,97.9734,293.8340,287.9133,71.3659,0,U,40020,999,64172,.10668E-3,.658E-5,0
OCO 2,2014-035A,2026-06-13T18:58:33.900960,14.57108757,.0001495,98.2018,106.1354,86.2119,273.9250,0,U,40059,999,63555,.89549E-4,.358E-5,0
BRITE-PL2 (HEWELIUSZ),2014-049B,2026-06-13T19:47:49.962048,14.94583699,.0015179,97.9094,276.7990,118.4588,241.8163,0,U,40119,999,64094,.14121E-3,.1471E-4,0
MMS 1,2015-011A,2026-06-13T20:00:01.999008,0.28542169,.8312302,72.1293,348.8296,167.4083,316.2156,0,U,40482,999,139,0,-.387E-5,0
MMS 2,2015-011B,2026-06-13T20:00:01.999008,0.28542177,.831309,72.1295,348.8318,167.4140,316.2041,0,U,40483,999,139,0,-.387E-5,0
MMS 3,2015-011C,2026-06-13T20:00:01.999008,0.28558553,.8311561,72.1315,348.8365,167.4086,316.1752,0,U,40484,999,139,0,-.386E-5,0
MMS 4,2015-011D,2026-06-13T20:00:01.999008,0.28542014,.831188,72.1287,348.8321,167.4163,316.1884,0,U,40485,999,139,0,-.387E-5,0
ASTROSAT,2015-052A,2026-06-13T20:41:46.353120,14.82502402,.0008055,5.9957,179.2889,343.6494,16.3374,0,U,40930,999,57933,.10188E-3,.1508E-4,0
DAMPE,2015-078A,2026-06-13T21:35:59.987904,15.30776422,.0013806,97.4556,170.3504,87.5018,272.7803,0,U,41173,999,58404,.33128E-4,.91E-5,0
PISAT,2016-059B,2026-06-13T20:59:12.994080,14.68978534,.0028119,97.8179,165.4696,213.6485,146.2936,0,U,41784,999,51925,.14676E-3,.817E-5,0
HXMT (HUIYAN),2017-034A,2026-06-13T13:58:29.875008,15.18458559,.0030272,43.0128,203.1146,123.5004,236.8744,0,U,42758,999,49711,.19572E-3,.3909E-4,0
FLYING LAPTOP,2017-042G,2026-06-13T20:27:46.171872,15.01129924,.0019471,97.4666,320.5145,132.5077,227.7796,0,U,42831,999,48595,.45518E-3,.5797E-4,0
ZHANGHENG 1-01 (CSES-1),2018-015C,2026-06-13T20:22:45.836832,15.20773536,.0017012,97.6860,330.4406,279.0094,80.9216,0,U,43194,999,46413,.31872E-3,.6975E-4,0
SALSAT,2020-068K,2026-06-13T19:25:47.720640,15.29755280,.000829,97.8845,167.6684,322.4274,37.6385,0,U,46495,999,31484,.28306E-3,.8083E-4,0
IXPE,2021-121A,2026-06-13T20:00:01.999008,15.10221505,.0007108,0.2314,342.6904,30.4985,359.2511,0,U,49954,999,581,.6503E-3,.11892E-3,0
SMILE,2026-109A,2026-05-24T15:40:35.120928,14.57062785,.00091232,70.0007,229.2745,259.5159,100.4951,0,U,69123,999,80,-.42378883E-3,-.1976E-4,0
